{
  "links" : {
    "next" : "https://api.nasa.gov/neo/rest/v1/feed?start_date=2013-01-16&end_date=2013-01-16&detailed=true&api_key=t0TVs3DtDT2H8Oy2Zy8m2eVrNsAVKAexjcZXUckd",
    "prev" : "https://api.nasa.gov/neo/rest/v1/feed?start_date=2013-01-14&end_date=2013-01-14&detailed=true&api_key=t0TVs3DtDT2H8Oy2Zy8m2eVrNsAVKAexjcZXUckd",
    "self" : "https://api.nasa.gov/neo/rest/v1/feed?start_date=2013-01-15&end_date=2013-01-15&detailed=true&api_key=t0TVs3DtDT2H8Oy2Zy8m2eVrNsAVKAexjcZXUckd"
  },
  "element_count" : 8,
  "near_earth_objects" : {
    "2013-01-15" : [ {
      "links" : {
        "self" : "https://api.nasa.gov/neo/rest/v1/neo/3735999?api_key=t0TVs3DtDT2H8Oy2Zy8m2eVrNsAVKAexjcZXUckd"
      },
      "neo_reference_id" : "3735999",
      "name" : "(2015 XL55)",
      "nasa_jpl_url" : "http://ssd.jpl.nasa.gov/sbdb.cgi?sstr=3735999",
      "absolute_magnitude_h" : 24.2,
      "estimated_diameter" : {
        "kilometers" : {
          "estimated_diameter_min" : 0.0384197891,
          "estimated_diameter_max" : 0.0859092601
        },
        "meters" : {
          "estimated_diameter_min" : 38.4197891064,
          "estimated_diameter_max" : 85.9092601232
        },
        "miles" : {
          "estimated_diameter_min" : 0.0238729428,
          "estimated_diameter_max" : 0.0533815229
        },
        "feet" : {
          "estimated_diameter_min" : 126.0491808919,
          "estimated_diameter_max" : 281.8545369825
        }
      },
      "is_potentially_hazardous_asteroid" : false,
      "close_approach_data" : [ {
        "close_approach_date" : "2013-01-15",
        "epoch_date_close_approach" : 1358236800000,
        "relative_velocity" : {
          "kilometers_per_second" : "7.1812320887",
          "kilometers_per_hour" : "25852.4355193038",
          "miles_per_hour" : "16063.698059203"
        },
        "miss_distance" : {
          "astronomical" : "0.4688189043",
          "lunar" : "182.3705596924",
          "kilometers" : "70134312",
          "miles" : "43579440"
        },
        "orbiting_body" : "Earth"
      } ],
      "orbital_data" : {
        "orbit_id" : "8",
        "orbit_determination_date" : "2017-04-06 08:30:13",
        "orbit_uncertainty" : "7",
        "minimum_orbit_intersection" : ".0188698",
        "jupiter_tisserand_invariant" : "4.865",
        "epoch_osculation" : "2458000.5",
        "eccentricity" : ".3261765380955328",
        "semi_major_axis" : "1.330046302688114",
        "inclination" : "4.238242829206507",
        "ascending_node_longitude" : "254.8804387185697",
        "orbital_period" : "560.271546440413",
        "perihelion_distance" : ".8962164041705422",
        "perihelion_argument" : "113.0544774768282",
        "aphelion_distance" : "1.763876201205687",
        "perihelion_time" : "2457863.899348010815",
        "mean_anomaly" : "87.77214375518314",
        "mean_motion" : ".6425455697102537",
        "equinox" : "J2000"
      }
    }, {
      "links" : {
        "self" : "https://api.nasa.gov/neo/rest/v1/neo/3743898?api_key=t0TVs3DtDT2H8Oy2Zy8m2eVrNsAVKAexjcZXUckd"
      },
      "neo_reference_id" : "3743898",
      "name" : "(2016 CP246)",
      "nasa_jpl_url" : "http://ssd.jpl.nasa.gov/sbdb.cgi?sstr=3743898",
      "absolute_magnitude_h" : 26.0,
      "estimated_diameter" : {
        "kilometers" : {
          "estimated_diameter_min" : 0.0167708462,
          "estimated_diameter_max" : 0.0375007522
        },
        "meters" : {
          "estimated_diameter_min" : 16.7708462163,
          "estimated_diameter_max" : 37.5007521798
        },
        "miles" : {
          "estimated_diameter_min" : 0.0104209175,
          "estimated_diameter_max" : 0.0233018799
        },
        "feet" : {
          "estimated_diameter_min" : 55.0224631002,
          "estimated_diameter_max" : 123.0339677816
        }
      },
      "is_potentially_hazardous_asteroid" : false,
      "close_approach_data" : [ {
        "close_approach_date" : "2013-01-15",
        "epoch_date_close_approach" : 1358236800000,
        "relative_velocity" : {
          "kilometers_per_second" : "8.4241635468",
          "kilometers_per_hour" : "30326.9887684242",
          "miles_per_hour" : "18844.0114378023"
        },
        "miss_distance" : {
          "astronomical" : "0.2151590521",
          "lunar" : "83.6968765259",
          "kilometers" : "32187338",
          "miles" : "20000284"
        },
        "orbiting_body" : "Earth"
      } ],
      "orbital_data" : {
        "orbit_id" : "4",
        "orbit_determination_date" : "2017-04-06 08:28:16",
        "orbit_uncertainty" : "8",
        "minimum_orbit_intersection" : ".0433232",
        "jupiter_tisserand_invariant" : "4.911",
        "epoch_osculation" : "2457431.5",
        "eccentricity" : ".2220950972556818",
        "semi_major_axis" : "1.319452768808801",
        "inclination" : "9.861010581172499",
        "ascending_node_longitude" : "313.6795948173535",
        "orbital_period" : "553.5912283173213",
        "perihelion_distance" : "1.026408777795932",
        "perihelion_argument" : "169.8479252610086",
        "aphelion_distance" : "1.612496759821671",
        "perihelion_time" : "2457411.804944092233",
        "mean_anomaly" : "12.80768148792265",
        "mean_motion" : ".650299321205368",
        "equinox" : "J2000"
      }
    } ]
  }
}